[{"OBJECT_NAME":"STARLINK-35434","OBJECT_ID":"2025-245N","EPOCH":"2026-03-09T20:57:17.623296","MEAN_MOTION":15.30207836,"ECCENTRICITY":7.782e-5,"INCLINATION":53.1567,"RA_OF_ASC_NODE":283.1123,"ARG_OF_PERICENTER":94.0216,"MEAN_ANOMALY":266.0874,"EPHEMERIS_TYPE":0,"CLASSIFICATION_TYPE":"U","NORAD_CAT_ID":66246,"ELEMENT_SET_NO":999,"REV_AT_EPOCH":2107,"BSTAR":0.00082494665,"MEAN_MOTION_DOT":0.00024159,"MEAN_MOTION_DDOT":0},{"OBJECT_NAME":"COSMOS 2251 DEB","OBJECT_ID":"1993-036BN","EPOCH":"2026-03-09T17:54:27.582912","MEAN_MOTION":15.31852549,"ECCENTRICITY":0.0043021,"INCLINATION":74.0291,"RA_OF_ASC_NODE":318.0178,"ARG_OF_PERICENTER":323.0874,"MEAN_ANOMALY":36.7369,"EPHEMERIS_TYPE":0,"CLASSIFICATION_TYPE":"U","NORAD_CAT_ID":33821,"ELEMENT_SET_NO":999,"REV_AT_EPOCH":76330,"BSTAR":0.0011195846,"MEAN_MOTION_DOT":0.00035571,"MEAN_MOTION_DDOT":0}]
